start=new Date('2022-07-21T00:00:00.000Z').valueOf();
sats=[{"INCLINATION":"53.0524","COUNTRY_CODE":"US","OBJECT_ID":"2020-088P","EPOCH":"2022-07-20T13:06:38.841696","ECCENTRICITY":"0.00016660","PERIOD":"95.592","REV_AT_EPOCH":"9210","TLE_LINE1":"1 47135U 20088P   22201.54628289  .00000938  00000-0  81856-4 0  9991","CLASSIFICATION_TYPE":"U","SITE":"AFETR","PERIAPSIS":"546.056","OBJECT_TYPE":"PAYLOAD","BSTAR":"0.00008185600000","MEAN_MOTION_DOT":"0.00000938","ARG_OF_PERICENTER":"69.8564","RCS_SIZE":"LARGE","LAUNCH_DATE":"2020-11-25","SEMIMAJOR_AXIS":"6925.344","GP_ID":"208509509","TLE_LINE2":"2 47135  53.0524 133.8919 0001666  69.8564 290.2604 15.06401386 92101","CENTER_NAME":"EARTH","DECAY_DATE":null,"MEAN_MOTION":"15.06401386","MEAN_MOTION_DDOT":"0.0000000000000","TIME_SYSTEM":"UTC","REF_FRAME":"TEME","MEAN_ELEMENT_THEORY":"SGP4","ELEMENT_SET_NO":"999","MEAN_ANOMALY":"290.2604","FILE":"3518212","EPHEMERIS_TYPE":"0","NORAD_CAT_ID":"47135","APOAPSIS":"548.363","OBJECT_NAME":"STARLINK-1845","RA_OF_ASC_NODE":"133.8919"},{"MEAN_ELEMENT_THEORY":"SGP4","MEAN_ANOMALY":"274.2552","ELEMENT_SET_NO":"999","FILE":"3518363","EPHEMERIS_TYPE":"0","NORAD_CAT_ID":"47136","APOAPSIS":"548.511","OBJECT_NAME":"STARLINK-1846","RA_OF_ASC_NODE":"143.0044","GP_ID":"208534828","CENTER_NAME":"EARTH","TLE_LINE2":"2 47136  53.0514 143.0044 0001907  85.8655 274.2552 15.06407594 91683","MEAN_MOTION":"15.06407594","DECAY_DATE":null,"MEAN_MOTION_DDOT":"0.0000000000000","REF_FRAME":"TEME","TIME_SYSTEM":"UTC","BSTAR":"0.00001973200000","OBJECT_TYPE":"PAYLOAD","PERIAPSIS":"545.870","MEAN_MOTION_DOT":"0.00000012","ARG_OF_PERICENTER":"85.8655","RCS_SIZE":"LARGE","LAUNCH_DATE":"2020-11-25","SEMIMAJOR_AXIS":"6925.325","INCLINATION":"53.0514","COUNTRY_CODE":"US","OBJECT_ID":"2020-088Q","EPOCH":"2022-07-20T17:51:56.431296","PERIOD":"95.592","ECCENTRICITY":"0.00019070","REV_AT_EPOCH":"9168","TLE_LINE1":"1 47136U 20088Q   22201.74440314  .00000012  00000-0  19732-4 0  9992","SITE":"AFETR","CLASSIFICATION_TYPE":"U"},{"COUNTRY_CODE":"US","INCLINATION":"53.0532","PERIOD":"95.591","ECCENTRICITY":"0.00015870","EPOCH":"2022-07-20T12:40:06.156192","OBJECT_ID":"2020-088R","CLASSIFICATION_TYPE":"U","SITE":"AFETR","TLE_LINE1":"1 47137U 20088R   22201.52784903  .00006733  00000-0  47020-3 0  9990","REV_AT_EPOCH":"9179","ARG_OF_PERICENTER":"59.5483","BSTAR":"0.00047020000000","OBJECT_TYPE":"PAYLOAD","PERIAPSIS":"546.049","MEAN_MOTION_DOT":"0.00006733","RCS_SIZE":"LARGE","SEMIMAJOR_AXIS":"6925.283","LAUNCH_DATE":"2020-11-25","CENTER_NAME":"EARTH","TLE_LINE2":"2 47137  53.0532 133.9694 0001587  59.5483 300.5663 15.06421439 91796","GP_ID":"208503845","TIME_SYSTEM":"UTC","REF_FRAME":"TEME","MEAN_MOTION_DDOT":"0.0000000000000","MEAN_MOTION":"15.06421439","DECAY_DATE":null,"FILE":"3518111","ELEMENT_SET_NO":"999","MEAN_ANOMALY":"300.5663","MEAN_ELEMENT_THEORY":"SGP4","NORAD_CAT_ID":"47137","EPHEMERIS_TYPE":"0","APOAPSIS":"548.247","RA_OF_ASC_NODE":"133.9694","OBJECT_NAME":"STARLINK-1849"},{"INCLINATION":"53.0537","COUNTRY_CODE":"US","REV_AT_EPOCH":"9175","TLE_LINE1":"1 47138U 20088S   22201.72463342 -.00001539  00000-0 -84432-4 0  9994","CLASSIFICATION_TYPE":"U","SITE":"AFETR","EPOCH":"2022-07-20T17:23:28.327488","OBJECT_ID":"2020-088S","PERIOD":"95.592","ECCENTRICITY":"0.00018630","RCS_SIZE":"LARGE","OBJECT_TYPE":"PAYLOAD","PERIAPSIS":"545.937","BSTAR":"-0.00008443200000","MEAN_MOTION_DOT":"-0.00001539","ARG_OF_PERICENTER":"57.7687","LAUNCH_DATE":"2020-11-25","SEMIMAJOR_AXIS":"6925.362","GP_ID":"208533326","CENTER_NAME":"EARTH","TLE_LINE2":"2 47138  53.0537 138.4078 0001863  57.7687 302.3482 15.06395617 91754","DECAY_DATE":null,"MEAN_MOTION":"15.06395617","MEAN_MOTION_DDOT":"0.0000000000000","TIME_SYSTEM":"UTC","REF_FRAME":"TEME","EPHEMERIS_TYPE":"0","NORAD_CAT_ID":"47138","MEAN_ELEMENT_THEORY":"SGP4","ELEMENT_SET_NO":"999","MEAN_ANOMALY":"302.3482","FILE":"3518363","OBJECT_NAME":"STARLINK-1850","RA_OF_ASC_NODE":"138.4078","APOAPSIS":"548.517"},{"PERIOD":"95.593","ECCENTRICITY":"0.00015600","EPOCH":"2022-07-20T13:49:50.541888","OBJECT_ID":"2020-088T","TLE_LINE1":"1 47139U 20088T   22201.57627942  .00005336  00000-0  37705-3 0  9993","CLASSIFICATION_TYPE":"U","SITE":"AFETR","REV_AT_EPOCH":"9188","COUNTRY_CODE":"US","INCLINATION":"53.0516","LAUNCH_DATE":"2020-11-25","SEMIMAJOR_AXIS":"6925.402","ARG_OF_PERICENTER":"73.7397","MEAN_MOTION_DOT":"0.00005336","OBJECT_TYPE":"PAYLOAD","PERIAPSIS":"546.186","BSTAR":"0.00037705000000","RCS_SIZE":"LARGE","MEAN_MOTION_DDOT":"0.0000000000000","TIME_SYSTEM":"UTC","REF_FRAME":"TEME","DECAY_DATE":null,"MEAN_MOTION":"15.06382616","CENTER_NAME":"EARTH","TLE_LINE2":"2 47139  53.0516 148.9515 0001560  73.7397 286.3764 15.06382616 91887","GP_ID":"208509602","APOAPSIS":"548.347","RA_OF_ASC_NODE":"148.9515","OBJECT_NAME":"STARLINK-1852","FILE":"3518224","MEAN_ELEMENT_THEORY":"SGP4","ELEMENT_SET_NO":"999","MEAN_ANOMALY":"286.3764","NORAD_CAT_ID":"47139","EPHEMERIS_TYPE":"0"},{"LAUNCH_DATE":"2020-11-25","SEMIMAJOR_AXIS":"6925.356","RCS_SIZE":"LARGE","ARG_OF_PERICENTER":"74.7199","OBJECT_TYPE":"PAYLOAD","PERIAPSIS":"546.250","BSTAR":"0.00000150740000","MEAN_MOTION_DOT":"-0.00000259","TLE_LINE1":"1 47141U 20088V   22201.50205456 -.00000259  00000-0  15074-5 0  9998","SITE":"AFETR","CLASSIFICATION_TYPE":"U","REV_AT_EPOCH":"9208","ECCENTRICITY":"0.00014020","PERIOD":"95.592","EPOCH":"2022-07-20T12:02:57.513984","OBJECT_ID":"2020-088V","COUNTRY_CODE":"US","INCLINATION":"53.0540","RA_OF_ASC_NODE":"134.0995","OBJECT_NAME":"STARLINK-1854","APOAPSIS":"548.192","NORAD_CAT_ID":"47141","EPHEMERIS_TYPE":"0","FILE":"3518019","MEAN_ELEMENT_THEORY":"SGP4","MEAN_ANOMALY":"285.3945","ELEMENT_SET_NO":"999","MEAN_MOTION_DDOT":"0.0000000000000","REF_FRAME":"TEME","TIME_SYSTEM":"UTC","DECAY_DATE":null,"MEAN_MOTION":"15.06397569","CENTER_NAME":"EARTH","TLE_LINE2":"2 47141  53.0540 134.0995 0001402  74.7199 285.3945 15.06397569 92087","GP_ID":"208479124"},{"ELEMENT_SET_NO":"999","MEAN_ANOMALY":"285.9077","MEAN_ELEMENT_THEORY":"SGP4","FILE":"3518363","EPHEMERIS_TYPE":"0","NORAD_CAT_ID":"47143","APOAPSIS":"548.259","OBJECT_NAME":"STARLINK-1856","RA_OF_ASC_NODE":"132.9704","GP_ID":"208533075","CENTER_NAME":"EARTH","TLE_LINE2":"2 47143  53.0532 132.9704 0001548  74.2082 285.9077 15.06408636 91823","DECAY_DATE":null,"MEAN_MOTION":"15.06408636","TIME_SYSTEM":"UTC","REF_FRAME":"TEME","MEAN_MOTION_DDOT":"0.0000000000000","PERIAPSIS":"546.115","OBJECT_TYPE":"PAYLOAD","MEAN_MOTION_DOT":"0.00003681","BSTAR":"0.00026581000000","ARG_OF_PERICENTER":"74.2082","RCS_SIZE":"LARGE","SEMIMAJOR_AXIS":"6925.322","LAUNCH_DATE":"2020-11-25","INCLINATION":"53.0532","COUNTRY_CODE":"US","OBJECT_ID":"2020-088X","EPOCH":"2022-07-20T17:58:35.015232","ECCENTRICITY":"0.00015480","PERIOD":"95.592","REV_AT_EPOCH":"9182","CLASSIFICATION_TYPE":"U","SITE":"AFETR","TLE_LINE1":"1 47143U 20088X   22201.74901638  .00003681  00000-0  26581-3 0  9995"},{"CENTER_NAME":"EARTH","TLE_LINE2":"2 47144  53.0541 125.4211 0001818  63.0181 297.0993 15.06405593 91886","GP_ID":"208503581","MEAN_MOTION_DDOT":"0.0000000000000","REF_FRAME":"TEME","TIME_SYSTEM":"UTC","DECAY_DATE":null,"MEAN_MOTION":"15.06405593","FILE":"3518111","MEAN_ELEMENT_THEORY":"SGP4","ELEMENT_SET_NO":"999","MEAN_ANOMALY":"297.0993","NORAD_CAT_ID":"47144","EPHEMERIS_TYPE":"0","APOAPSIS":"548.455","RA_OF_ASC_NODE":"125.4211","OBJECT_NAME":"STARLINK-1857","COUNTRY_CODE":"US","INCLINATION":"53.0541","PERIOD":"95.592","ECCENTRICITY":"0.00018180","OBJECT_ID":"2020-088Y","EPOCH":"2022-07-20T04:54:21.310848","TLE_LINE1":"1 47144U 20088Y   22201.20441332  .00004810  00000-0  34156-3 0  9999","CLASSIFICATION_TYPE":"U","SITE":"AFETR","REV_AT_EPOCH":"9188","ARG_OF_PERICENTER":"63.0181","OBJECT_TYPE":"PAYLOAD","PERIAPSIS":"545.937","BSTAR":"0.00034156000000","MEAN_MOTION_DOT":"0.00004810","RCS_SIZE":"LARGE","LAUNCH_DATE":"2020-11-25","SEMIMAJOR_AXIS":"6925.331"},{"DECAY_DATE":null,"MEAN_MOTION":"15.87228168","MEAN_MOTION_DDOT":"0.0000000000000","REF_FRAME":"TEME","TIME_SYSTEM":"UTC","GP_ID":"208534078","TLE_LINE2":"2 47145  53.0453  56.2925 0002823 170.9387 189.1689 15.87228168 92902","CENTER_NAME":"EARTH","OBJECT_NAME":"STARLINK-1858","RA_OF_ASC_NODE":"56.2925","APOAPSIS":"311.948","EPHEMERIS_TYPE":"0","NORAD_CAT_ID":"47145","MEAN_ELEMENT_THEORY":"SGP4","MEAN_ANOMALY":"189.1689","ELEMENT_SET_NO":"999","FILE":"3518363","REV_AT_EPOCH":"9290","TLE_LINE1":"1 47145U 20088Z   22201.76113243  .00220814  00000-0  80864-3 0  9999","CLASSIFICATION_TYPE":"U","SITE":"AFETR","OBJECT_ID":"2020-088Z","EPOCH":"2022-07-20T18:16:01.841952","ECCENTRICITY":"0.00028230","PERIOD":"90.724","INCLINATION":"53.0453","COUNTRY_CODE":"US","LAUNCH_DATE":"2020-11-25","SEMIMAJOR_AXIS":"6688.195","RCS_SIZE":"LARGE","PERIAPSIS":"308.172","OBJECT_TYPE":"PAYLOAD","BSTAR":"0.00080864000000","MEAN_MOTION_DOT":"0.00220814","ARG_OF_PERICENTER":"170.9387"},{"SITE":"AFETR","CLASSIFICATION_TYPE":"U","TLE_LINE1":"1 47147U 20088AB  22201.36107307  .00000257  00000-0  36168-4 0  9997","REV_AT_EPOCH":"9188","ECCENTRICITY":"0.00014990","PERIOD":"95.592","EPOCH":"2022-07-20T08:39:56.713248","OBJECT_ID":"2020-088AB","COUNTRY_CODE":"US","INCLINATION":"53.0526","SEMIMAJOR_AXIS":"6925.366","LAUNCH_DATE":"2020-11-25","RCS_SIZE":"LARGE","ARG_OF_PERICENTER":"66.7153","OBJECT_TYPE":"PAYLOAD","BSTAR":"0.00003616800000","PERIAPSIS":"546.193","MEAN_MOTION_DOT":"0.00000257","TIME_SYSTEM":"UTC","REF_FRAME":"TEME","MEAN_MOTION_DDOT":"0.0000000000000","DECAY_DATE":null,"MEAN_MOTION":"15.06394351","TLE_LINE2":"2 47147  53.0526 144.7243 0001499  66.7153 293.3994 15.06394351 91884","CENTER_NAME":"EARTH","GP_ID":"208508816","RA_OF_ASC_NODE":"144.7243","OBJECT_NAME":"STARLINK-1860","APOAPSIS":"548.269","NORAD_CAT_ID":"47147","EPHEMERIS_TYPE":"0","FILE":"3518198","MEAN_ANOMALY":"293.3994","ELEMENT_SET_NO":"999","MEAN_ELEMENT_THEORY":"SGP4"}];
